[{"OBJECT_NAME":"EOSSAT-1","OBJECT_ID":"2023-001AW","EPOCH":"2026-03-09T17:40:07.010400","MEAN_MOTION":15.32339828,"ECCENTRICITY":0.00112629,"INCLINATION":97.3357,"RA_OF_ASC_NODE":130.2294,"ARG_OF_PERICENTER":110.3168,"MEAN_ANOMALY":249.9285,"EPHEMERIS_TYPE":0,"CLASSIFICATION_TYPE":"U","NORAD_CAT_ID":55053,"ELEMENT_SET_NO":999,"REV_AT_EPOCH":17668,"BSTAR":0.00024844399,"MEAN_MOTION_DOT":7.695e-5,"MEAN_MOTION_DDOT":0},{"OBJECT_NAME":"STARLINK-36194","OBJECT_ID":"2025-299AE","EPOCH":"2026-03-09T22:00:01.999584","MEAN_MOTION":15.28417878,"ECCENTRICITY":0.00024386,"INCLINATION":43.0007,"RA_OF_ASC_NODE":167.6728,"ARG_OF_PERICENTER":278.61,"MEAN_ANOMALY":1.4721,"EPHEMERIS_TYPE":0,"CLASSIFICATION_TYPE":"U","NORAD_CAT_ID":67130,"ELEMENT_SET_NO":999,"REV_AT_EPOCH":590,"BSTAR":-0.00037391289,"MEAN_MOTION_DOT":-0.00010807,"MEAN_MOTION_DDOT":0}]
